JAM-E JAM 1             
1 67757U 26028B   26159.84343177  .00000172  00000+0  00000+0 0  9998
2 67757   0.2786 299.6954 0000940 300.4641 354.6001  1.00271880  1032
ECHOSTAR 25             
1 68126U 26045A   26159.67846005 -.00000040  00000+0  00000+0 0  9992
2 68126   0.0178 340.2282 0001274  99.4054 311.6870  1.00267804   900
