OBJECT_NAME,OBJECT_ID,EPOCH,MEAN_MOTION,ECCENTRICITY,INCLINATION,RA_OF_ASC_NODE,ARG_OF_PERICENTER,MEAN_ANOMALY,EPHEMERIS_TYPE,CLASSIFICATION_TYPE,NORAD_CAT_ID,ELEMENT_SET_NO,REV_AT_EPOCH,BSTAR,MEAN_MOTION_DOT,MEAN_MOTION_DDOT
JAM-E JAM 1,2026-028B,2026-06-08T20:14:32.504928,1.00271880,.000094,0.2786,299.6954,300.4641,354.6001,0,U,67757,999,103,0,.172E-5,0
ECHOSTAR 25,2026-045A,2026-06-08T16:16:58.948320,1.00267804,.0001274,0.0178,340.2282,99.4054,311.6870,0,U,68126,999,90,0,-.4E-6,0
